account_name,shipping_country,shipping_state_province,shipping_city,shipping_address_line_2,shipping_address_line_3,shipping_address_line_1,shipping_street
ACS Cobham International School - Rescue Team,United Kingdom,England,Cobham,,,,
Adolfo Camarillo High School-Rescue Team,United States,California,Camarillo,,,,
Alexander Hamilton High School - Rescue Team,United States,California,Los Angeles,,,2955 S. Robertson Blvd.,2955 S. Robertson Blvd.
Amador Valley High School -Rescue Team,United States,California,Pleasanton,,,,
American Community School-Rescue Team,United Arab Emirates,Abu Dhabi,Abu Dhabi,,,,
Amherst College - Rescue Team,United States,Massachusetts,Amherst,,,,
Anchorage Community-Rescue Team,United States,Alaska,Anchorage,,,,
Angers Community - Rescue Team,France,Pays de la Loire,Angers,,,,
Archbishop Mitty High School-Rescue Team,United States,California,San Jose,,,,
Arnold O. Beckman High School - Rescue Team,United States,California,Irvine,,,3588 Bryan Ave,3588 Bryan Ave
Ashland High School (OR) - Rescue Team,United States,Oregon,Ashland,,,,
Athens Community - Rescue Team,United States,Georgia,Athens,,,,
Auckland International College-Rescue Team,New Zealand,Auckland,Auckland,,"Postal: 33 Tirotai Crescent, Westmere,1022",85 Airedale Street,"Physical: 85 Airedale Street Postal: 33 Tirotai Crescent, Westmere,1022"
Austin College - Rescue Team,United States,Texas,Sherman,,,,
Austin Community-Rescue Team,United States,Texas,Austin,,,,
Avon High School (CT)-Rescue Team,United States,Connecticut,Avon,,,510 West Avon Road,510 West Avon Road
Bakersfield High School-Rescue Team,United States,California,Bakersfield,,,1241 G St,1241 G St
Ball State University - Rescue Team,United States of America,Indiana,Muncie,,,"2000 W University Ave, Muncie, IN 47306","2000 W University Ave, Muncie, IN 47306"
Belmont University-Rescue Team,United States,Tennessee,Nashville,,,1900 Belmont Boulevard,1900 Belmont Boulevard
Bergen County Academies - Rescue Team,United States,New Jersey,Hackensack,,,200 Hackensack Avenue,200 Hackensack Avenue
Binghamton University - Rescue Team,United States,New York,Binghamton,,,,
Boise State University-Rescue Team,United States,Idaho,Boise,,,,
Bonita Vista High School - Rescue Team,United States,California,Chula Vista,,,,
Boston College-Rescue Team,United States,Massachusetts,Boston,,,,
Boston Conservatory - Rescue Team,United States,Massachusetts,Boston,,,,
Boston Latin School - Rescue Team,United States,Massachusetts,Boston,,,78 Louis Pasteur Ave.,78 Louis Pasteur Ave.
Boston University - Rescue Team,United States,Massachusetts,Boston,,,,
Bow Valley High School - Rescue Team,Canada,Alberta,Cochrane,,,"2000 River Heights Dr, Cochrane, AB","2000 River Heights Dr, Cochrane, AB"
Brandeis University-Rescue Team,United States,Massachusetts,Waltham,,,,
Bristol Community-Rescue Team,United Kingdom,England,Bristol,,,,
Brown University - Rescue Team,United States,Rhode Island,Providence,,,,
Bryn Mawr College-Rescue Team,United States,Pennsylvania,Bryn Mawr,,,101 N Merion Ave,101 N Merion Ave
Buena High School (CA)-Rescue Team,United States,California,San Buenaventura (Ventura),,,5670 Telegraph Rd,5670 Telegraph Rd
Buena High School-Rescue Team,United States,Arizona,Sierra Vista,,,,
California State University Northridge-Rescue Team,United States,California,Northridge,,,,
"California State University, Fresno-Rescue Team",United States,California,Fresno,,,5241 North Maple Avenue,5241 North Maple Avenue
Calvin College - Rescue Team,United States,Michigan,Grand Rapids,,,3201 Burton St SE,3201 Burton St SE
Cambridge (UK) Community-Rescue Team,United Kingdom,England,Cambridge,,,,
Carleton College-Rescue Team,United States,Minnesota,Northfield,,,,
Carlsbad High School-Rescue Team,United States,California,Carlsbad,,,,
Carnegie Mellon University - Rescue Team,United States,Pennsylvania,Pittsburgh,,,5000 Forbes Avenue,5000 Forbes Avenue
Catlin Gabel School-Semi-Rescue Team,United States,Oregon,Portland,,,,
Centennial High School (Corona) - Rescue Team,United States,California,Corona,,,,
Centennial High School (MD)-Rescue Team,United States,Maryland,Ellicott City,,,,
Central High School - Rescue Team,United States,Missouri,Springfield,,,,
Central Michigan University-Rescue Team,United States,Michigan,Mount Pleasant,,,,
Centreville High School- Rescue Team,United States,Virginia,Centreville,,,,
Chantilly High School-Rescue Team,United States,Virginia,Chantilly,,,,
Charlotte Catholic High School - Rescue Team,United States,North Carolina,Charlotte,,,7702 Pineville-Matthews Rd,7702 Pineville-Matthews Rd
Chinese International School-Rescue Team,China,Hong Kong,North Point,,,,
Choate Rosemary Hall - Rescue Team,United States,Connecticut,Wallingford,,,,
Christian Center Philadelphia-Rescue Team,Mexico,Chiapas,Tuxtla Gutierrez,,,,
Cincinnati Community-Rescue Team,United States,Ohio,Cincinnati,,,,
Claremont McKenna College - Rescue Team,United States,California,Claremont,,,888 Columbia Ave,888 Columbia Ave
Clark University - Rescue Team,United States,Massachusetts,Worcester,,,950 Main Street,950 Main Street
"Claudia Taylor ""Lady Bird"" Johnson High School-Rescue Team",United States,Texas,San Antonio,,,,
Cleveland High School (Reseda)- Rescue Team,United States,California,Reseda,,,8140 Vanalden Avenue,8140 Vanalden Avenue
Coe College - Rescue Team,United States,Iowa,Cedar Rapids,,,,
Colonel Gray High School-Rescue Team,Canada,Prince Edward Island,Charlottetown,,,,
Columbia University - Rescue Team,United States,New York,New York City,,,,
Conestoga High School-Rescue Team,United States,Pennsylvania,Berwyn,,,,
Confidential Information - Do Not Distribute,,,,,,,
Cooper City High School-Semi Rescue Team,United States,Florida,Cooper City,,,9401 Stirling Rd.,9401 Stirling Rd.
"Copyright (c) 2000-2015 salesforce.com, inc. All rights reserved.",,,,,,,
Crest High School-Rescue Team,United States,North Carolina,Shelby,,,,
Cross County High School - Rescue Team,United States,Arkansas,Cherry Valley,,,,
CUNY-City College of New York-Rescue Team,United States,New York,New York,,,160 Convent Avenue,160 Convent Avenue
Cypress Bay High School - Rescue Team,United States of America,Florida,Weston,,,"18600 Vista Park Blvd,","18600 Vista Park Blvd,"
Cypress High School-Rescue Team,United States,California,Orange County,,,,
Daegu Community-Rescue Team,South Korea,Yeongnam,Daegu,,,,
Dalhousie University-Rescue Team,Canada,Nova Scotia,Halifax,,,,
Dallas Community - Rescue Team,United States,Texas,Dallas,,,,
DC Metro and Northern Virginia Community - Rescue Team,United States,Washington D.C.,Washington D.C.,,,,
Del Lago Academy - Rescue Team,United States,California,Escondido,,,1740 Scenic Trails Way,1740 Scenic Trails Way
Del Norte High School - Rescue Team,United States,California,San Diego,,,,
Desert Christian High School-Rescue Team,United States,CA,Lancaster,"Lancaster, CA 93534-2806",,44662 15th Street West,"44662 15th Street West Lancaster, CA 93534-2806"
Detroit Community-Rescue Team,United States,Michigan,Detroit,,,,
Don Bosco Prep High School - Rescue Team,United States,New Jersey,Ramsey,,,,
Dougherty Valley High School - Rescue Team,United States of America,California,San Ramon,,,"10550 Albion Rd, San Ramon, CA 94582","10550 Albion Rd, San Ramon, CA 94582"
Dover Bay Secondary School-Rescue Team,Canada,British Columbia,Nanaimo,,,6135 McGirr Road,6135 McGirr Road
Downey High School-Rescue Team,United States,California,Downey,,,,
Dulaney High School-Rescue Team,United States,Maryland,Timonium,,,,
East Chapel Hill High School-Rescue Team,United States,North Carolina,Chapel Hill,,,,
East Los Angeles College-Rescue Team,United States,California,Monterey Park,,,,
Edinburgh Community -Rescue Team,United Kingdom,Scotland,Edinburgh,,,,
El Modena High School-Rescue Team,United States,CA,Orange,,,3920 E Spring Street,3920 E Spring Street
Elmhurst College-Rescue Team,United States,Illinois,Chicago,,,,
Emory University - Rescue Team,United States,Georgia,Atlanta,,,,
Fair Lawn High School - Rescue Team,United States,New Jersey,Fair Lawn,,,14-00 Berdan Ave,14-00 Berdan Ave
Faustin Fl_ret High School - Rescue Team,France,Gaudeloupe,Morne-A-l'Eau,,,,
Finland Community - Rescue Team,Finland,Southern Finland,Jorvas,Kolmenkyl_nkaari 3,,,"(Sara Kalkku,) Kolmenkyl_nkaari 3"
Fleming College - Rescue Team,Canada,Ontario,Peterborough,,,"1005 Elgin Street W., Cobourg, ON K9A 5J4, Canada","1005 Elgin Street W., Cobourg, ON K9A 5J4, Canada"
Florida Gulf Coast University-Rescue Team,United States,Florida,Fort Myers,,,10501 Fgcu Blvd S,10501 Fgcu Blvd S
Fountain Valley High School - Rescue Team,United States,California,Fountain Valley,,,"17816 Bushard Street Fountain Valley, CA 92708","17816 Bushard Street Fountain Valley, CA 92708"
Fraser Heights Secondary School-Rescue Team,Canada,British Columbia,Surrey,,,,
Furman University-Rescue Team,United States,South Carolina,Greenville,,,3300 Poinsett Highway,3300 Poinsett Highway
Generated By: Rescue Teams 8/28/2015 9:02 PM,,,,,,,
George Mason High School-Rescue Team,United States,Virginia,Falls Church,,,,
George Mason University- Rescue Team,United States,Virginia,Fairfax,,,,
George Washington University-Rescue Team,United States,Washington D.C.,Washington D.C.,,,2121 I St NW,2121 I St NW
Georgia Institute of Technology - Rescue Team,United States,Georgia,Atlanta,,,,
Glen A. Wilson High School - Rescue Team,United States,California,Hacienda Heights,,,16455 Wedgeworth Drive,16455 Wedgeworth Drive
Glenbrook South High School-Rescue Team,United States,Ilinois,Glenview,,,,
Glendora High School-Rescue Team,United States,California,Glendora,,,,
Glenelg Country School-Rescue Team,United States,Maryland,Ellicott City,,,,
Global Vision Christian School-Rescue Team,South Korea,North Gyeongsang,Mungyeong,,,,
Golden Valley High School-Rescue Team,United States,California,Santa Clarita,,,27051 Robert C. Lee Parkway,27051 Robert C. Lee Parkway
Grand Rapids Community-Rescue Team,United States,Michigan,Grand Rapids,,,,
Great Bay Community- Rescue Team,United States,New Hampshire,Portsmouth,,,,
Grinnell College - Rescue Team,United States,Iowa,Grinnell,,,"Box 4808, 1115 8th Ave","Box 4808, 1115 8th Ave"
Gunsan Community-Rescue Team,South Korea,North Jeolla,Gunsan,,,,
Gwangju Community-Semi-Rescue Team,South Korea,Gyeonggi,Gwangju,,,,
Gyeonggi Suwon International School - Rescue Team,South Korea,Gyeonggi,Suwon,,,,
Hamilton College - Rescue Team,United States,New York,Clinton,"Clinton, NY 13323",,198 College Hill Road,"198 College Hill Road Clinton, NY 13323"
Hammond High School-Rescue Team,United States,Maryland,Columbia,,,,
Hampshire College-Semi-Rescue Team,United States,Massachusetts,Amherst,,,,
Harvard-Westlake School -Rescue Team,United States,California,Studio City,,,,
Hong Kong Community -Rescue Team,China,Hong Kong,Hong Kong,,,,
Humboldt Community - Rescue Team,United States,California,Eureka,,,7351 Tompkins Hill Rd.,7351 Tompkins Hill Rd.
Hunter College Campus High School-Rescue Team,United States,New York,New York,,,,
Huron High School-Rescue Team,United States,Michigan,Ann Arbor,,,,
Incheon International High School-Rescue Team,South Korea,Gyeonggi,Incheon,,,,
Independence High School-Rescue Team,United States,California,San Jose,,,1776 Educational Park Dr,1776 Educational Park Dr
International Community School - Rescue Team,United States,Washington,Kirkland,,,"11133 NE 65th St, Kirkland, WA 98033","11133 NE 65th St, Kirkland, WA 98033"
International Community School (Singapore)-Rescue Team,Singapore,Singapore,Singapore,,,,
Irvine High School - Rescue Team,United States,California,Irvine,,,4321 Walnut Ave,4321 Walnut Ave
Ivy Tech Community College-Semi Rescue Team,United States,Indiana,Carmel,,,,
J Concert Artists - Semi - Rescue Team,United States,California,Los Angeles,,,,
James Madison University - Rescue Team,United States,Virginia,Harrisonburg,,,91 East Grace St.,91 East Grace St.
Jersey Village High School - Rescue Team,United States,Texas,Houston,,,,
Jesse Bethel High School-Rescue Team,United States,California,Vallejo,,,,
John F. Kennedy High School-Rescue Team,United States,California,La Palma,,,8281 Walker St.,8281 Walker St.
John F. Kennedy Middle College High School - Rescue Team,United States,California,Norco,,,,
John Polanyi Collegiate Institute-Semi Rescue Team,Canada,Ontario,Toronto,,,Lawrence Ave W,Lawrence Ave W
Johns Hopkins University-Rescue Team,United States,Maryland,Baltimore,,,,
Judson College-Rescue Team,United States,Alabama,Marion,,,302 Bibb Street,302 Bibb Street
Jurupa Hills High School - Rescue Team,United States,California,Fontana,,,,
Kelvin High School-Rescue Team,Canada,Manitoba,Winnipeg,,,,
Kennesaw State University - Rescue Team,United States,Georgia,Kennesaw,,,,
Kent-Meridian High School - Rescue Team,United States,Washington,Kent,,,10020 SE 256th St,10020 SE 256th St
King's High School - Rescue Team,United States,Washington,Seattle,,,19303 Fremont Ave N,19303 Fremont Ave N
Knox College- Rescue Team,United States,Illinois,Galesburg,,,,
Korea International School (KIS)-Rescue Team,South Korea,Gyeonggi-do,Seongnam,,,"373-6 Baekhyun-dong, Bundang-gu","373-6 Baekhyun-dong, Bundang-gu"
Korean International Christian School-Semi-Rescue Team,South Korea,Gyeonggi,Bucheon,,,,
Korean Minjok Leadership Academy - Rescue Team,South Korea,Gangwon-do,Hoengseong-gun,,,"800 Bongwha-ro, Anheung-myeon","800 Bongwha-ro, Anheung-myeon"
Korean Presbyterian Church of Miami - Rescue Team,United States,Florida,Fort Lauderdale,,,,
Koreatown Boy Scouts & Girl Scouts-Semi Rescue Team,United States,California,Los Angeles,,,,
La Ca_ada High School - Rescue Team,United States,California,La Ca_ada Flintridge,,,,
LA Comedy - Rescue Team,United States,California,Los Angeles,,,,
Lake Braddock Secondary School-Rescue Team,United States,Virginia,Burke,,,,
Le Moyne College-Rescue Team,United States,New York,Syracuse,,,,
Leigh High School-Rescue Team,United States,California,San Jose,,,,
Leland High School-Rescue Team,United States,California,San Jose,,,,
Lewis and Clark College-Rescue Team,United States,Oregon,Portland,,,,
Lewis and Clark High School - Rescue Team,United States,Washington,Spokane,,,,
Lexington High School-Rescue Team,United States,Massachusetts,Lexington,,,,
Lynwood High School - Rescue Team,United States,Washington,Lynwood,,,,
Macalester College-Rescue Team,United States,Minnesota,St. Paul,,,1600 Grand Ave.,1600 Grand Ave.
Maggie L. Walker Governor's School - Rescue Team,United States,Virginia,Richmond,,,1000 N. Lombardy St,1000 N. Lombardy St
Malmo Borgarskolan - Rescue Team,Sweden,Scania,Malmo,,,"Regementsgatan 36, 211 42 Malm_, Sweden","Regementsgatan 36, 211 42 Malm_, Sweden"
Manhattan College - Rescue Team,United States,New York,Riverdale,,,4513 Manhattan College Parkway,4513 Manhattan College Parkway
Marjory Stoneman Douglas High School-Semi Rescue Team,United States,Florida,Parkland,,,5901 Pine Island Rd.,5901 Pine Island Rd.
Marlborough High School-Rescue Team,United States,California,Los Angeles,,,,
Massachusetts Institute of Technology - Rescue Team,United States,Massachusetts,Boston,,,,
McGill University-Rescue Team,Canada,Quebec,Montreal,,,,
Melbourne High School (Australia)-Rescue Team,Australia,Victoria,Melbourne,,,,
Memorial High School (Houston)-Rescue Team,United States,Texas,Houston,,,,
Mentone Girls' Grammar School - Rescue Team,Australia,Victoria,Melbourne,,,,
Merrimack High School-Rescue Team,United States,New Hampshire,Merrimack,,,,
Miami University Oxford -Semi- Rescue Team,United States,Ohio,Oxford,,,,
Michigan State University-Rescue Team,United States,Michigan,East Lansing,,,,
Middle Tennessee State University - Rescue Team,United States,Tennessee,Murfreesboro,,,,
Midrand Graduate Institute-Rescue Team,South Africa,Gauteng,Midrand,,,,
Milpitas High School - Rescue Team,United States,California,San Jose,,,,
Missouri State University - Rescue Team,United States,Missouri,Springfield,,,,
Mount Holyoke College - Rescue Team,United States,Massachusetts,South Hadley,,,,
Neighborhood Unitarian Universalist Church of Pasadena-Rescue Team,United States,California,Pasadena,,,301 N Orange Grove Blvd,301 N Orange Grove Blvd
New Jersey Community-Rescue Team,United States,New Jersey,Ewing,,,,
New York Community - Rescue Team,United States,New York,New York City,,,,
New York University - Rescue Team,United States,New York,New York City,,,,
Newton South High School - Rescue Team,United States,Massachusetts,Newton,,,,
Nixa High School-Semi-Rescue Team,United States,Missouri,Nixa,,,,
NorCal Community-Rescue Team,United States,California,Pleasanton,,,,
North Penn High School-Rescue Team,United States,Pennsylvania,Lansdale,,,,
Northeastern University -Rescue Team,United States,Massachusetts,Boston,,,,
Northfield Mount Hermon - Rescue Team,United States,Massachusetts,Mount Hermon,,,One Lamplighter Way,One Lamplighter Way
Northview High School - Rescue Team,United States,Georgia,Johns Creek,,,10625 Parsons Rd,10625 Parsons Rd
Northwood High School - Rescue Team,United States,California,Irvine,,,4515 Portola Parkway.,4515 Portola Parkway.
Nova High School (Davie)-Rescue Team,United States,Florida,Davie,,,3600 College Ave.,3600 College Ave.
NYOS Charter School - Rescue Team,United States,Texas,Austin,,,12301 N. Lamar Blvd.,12301 N. Lamar Blvd.
Ohio State University - Rescue Team,United States,Ohio,Columbus,,,,
Ohio University-Rescue Team,United States,Ohio,Athens,,,,
Open Source-Rescue Team,United States,Florida,Miami,,,,
Orange County School of the Arts - Rescue Team,United States,California,Orange County,,,,
Oxford Academy - Rescue Team,United States,California,Cypress,,,"5172 Orange Ave, Buena Park State","5172 Orange Ave, Buena Park State"
Pace University-Semi-Rescue Team,United States,New York,New York City,,,,
Pacific Ridge School-Rescue Team,United States,California,Carlsbad,,,,
Paju Community-Rescue Team,South Korea,Gyeonggi,Paju,,,,
Palisades Charter High School-Rescue Team,United States,California,Pacific Palisades,,,,
Pennsylvania State University - Rescue Team,United States,Pennsylvania,State College,,,"University Park, State College","University Park, State College"
Phillips Academy Andover-Rescue Team,United States,Massachusetts,Andover,,,180 Main Street,180 Main Street
Phillips Exeter Academy - Rescue Team,United States,New Hampshire,Exeter,,,,
Polytechnic High School (Pasadena)-Rescue Team,United States,California,Pasadena,,,,
Poway High School - Rescue Team,United States,California,Poway,,,15500 Espola Rd.,15500 Espola Rd.
Purdue University - Rescue Team,United States,Indiana,West Lafayette,,,,
Quincy Community - Rescue Team,United States,Massachusetts,Quincy,,,,
Ravenscroft School - Rescue Team,United States,North Carolina,Raleigh,,,7409 Falls of Neuse Road,7409 Falls of Neuse Road
Renaissance Magnet High School - Rescue Team,United States,Idaho,Meridian,,,1307 E. Central Drive,1307 E. Central Drive
Rescue Teams,,,,,,,
Reynolds High School - Rescue Team,United States,Oregon,Troutdale,,,1698 SW Cherry Park Rd.,1698 SW Cherry Park Rd.
Rice Memorial High School-Semi Rescue Team,United States,Vermont,Burlington,,,,
Ridge High School - Rescue Team,United States,New Jersey,Basking Ridge,,,,
Rock Valley College-Rescue Team,United States,Illinois,Rockford,,,,
Roseville Area High School - Rescue Team,United States of America,Minnesota,Roseville,,,1240 County Road B2 W,1240 County Road B2 W
Rowan College at Gloucester County-Rescue Team,United States,New Jersey,Sewell,,,,
Royal West Academy-Rescue Team,Canada,Quebec,Montreal,,,,
Rutgers University-Rescue Team,United States,New Jersey,Piscataway,22448 BPO WAY,,Rutgers University,Rutgers University 22448 BPO WAY
Saint Viator High School-Rescue Team,United States,Illinois,Arlington Heights,,,1213 E Oakton St.,1213 E Oakton St.
San Antonio Community - Rescue Team,United States,Texas,San Antonio,,,,
San Jose Community-Rescue Team,United States,California,San Jose,,,,
Santiago High School - Rescue Team,United States,California,Corona,,,,
Savannah Arts Academy-Rescue Team,United States,Georgia,Savannah,,,,
Seattle Colleges District - Rescue Team,United States,Washington,Seattle,,,,
Seattle Community-Rescue Team,United States of America,Washington,Seattle,,,,
Seoul Community-Rescue Team,South Korea,Gyeonggi,Incheon,,,,
Seoul Foreign School-Rescue Team,South Korea,Gyeonggi,Seoul,,,,
Seoul International School-Rescue Team,South Korea,Gyeonggi-do,Seoul,,,,
Serrano High School - Rescue Team,United States of America,California,Phelan,,,"9292 Sheep Creek Rd, Phelan, CA 92371","9292 Sheep Creek Rd, Phelan, CA 92371"
Singapore Community-Rescue Team,Singapore,Central Singapore,Singapore,,,,
Sixth Form College-Rescue Team,United Kingdom,England,Colchester,,,,
Smith College - Rescue Team,United States,Massachusetts,Northhampton,,,,
South High School (Torrance)-Rescue Team,United States,California,Torrance,,,4801 Pacific Coast Hwy,4801 Pacific Coast Hwy
Southern Hills Middle School-Rescue Team,United States,Colorado,Boulder,,,,
Southern Methodist University-Rescue Team,United States,Texas,Dallas,,,,
Spain Community-Rescue Team,Spain,Madrid,Madrid,,,,
St. Paul's Girls' School-Rescue Team,United Kingdom,England,London,,,,
St. Paul's School (Concord)-Rescue Team,United States,New Hampshire,Concord,,,,
St. Xavier University-Rescue Team,United States,Illinois,Chicago,,,3700 W 103rd St,3700 W 103rd St
Stanford University - Rescue Team,United States of America,California,Stanford,,,"450 Serra Mall, Stanford, CA 94305","450 Serra Mall, Stanford, CA 94305"
State University of New York Oneonta- Rescue Team,United States of America,New York,Oneonta,,,"108 Ravine Pkwy, Oneonta, NY 13820","108 Ravine Pkwy, Oneonta, NY 13820"
State University of New York Oswego-Semi Rescue Team,United States,New York,Oswego,7060 Route 104,"Oswego, New York 13126-3599",SUNY Oswego,"SUNY Oswego 7060 Route 104 Oswego, New York 13126-3599"
"State University of New York, Geneseo - Rescue Team",United States,New York,Geneseo,,,101 College Circle,101 College Circle
Stuyvesant High School - Rescue Team,United States,New York,New York,,,345 Chambers Street,345 Chambers Street
Summit Charter Collegiate Academy-Rescue Team,United States,California,Porterville,,,,
Sunny Hills High School-Rescue Team,United States,California,Fullerton,,,,
SUNY-New Paltz-Rescue Team,United States,New York,New Paltz,,,,
Sydney Community-Rescue Team,Australia,New South Wales,Sydney,,,,
Syracuse University - Rescue Team,United States,New York,Syracuse,,,,
Temple University - Rescue Team,United States,Pennsylvania,Philadelphia,,,1801 N. Broad Street,1801 N. Broad Street
Texas A&M Univeristy- Central Texas-Rescue Team,United States,Texas,College Station,,,,
Texas A&M University-Rescue Team,United States,Texas,College Station,,,,
Texas Christian University-Rescue Team,United States,Texas,Fort Worth,,,2800 S. University Dr.,2800 S. University Dr.
The Bishop's School-Rescue Team,United States,California,La Jolla,,,,
The O'Neal School-Rescue Team,United States,North Carolina,Southern Pines,,,,
The Westminster School-Rescue Team,United States,Georgia,Atlanta,,,,
The Williston Northampton School - Rescue Team,United States,Massachusetts,Easthampton,,,19 Payson Avenue,19 Payson Avenue
Torrey Pines High School-Rescue Team,United States of America,California,San Diego,,,,
Tufts University - Rescue Team,United States,Massachusetts,Medford,,,,
Union University-Rescue Team,United States,Tennessee,Jackson,,,,
United World College of South East Asia (UWCSEA) - Rescue Team,Singapore,Singapore,Singapore,,,,
University College London-Rescue Team,United Kingdom,England,London,,,,
University of Alabama at Birmingham - Rescue Team,United States,Alabama,Birmingham,,,,
University of Arizona-Rescue Team,United States,Arizona,Tuscon,,,,
University of Bochum-Rescue Team,Germany,North Rhine-Westphalia,Bochum,,,,
University of British Columbia-Rescue Team,Canada,British Columbia,Vancouver,,,,
"University of California, Berkeley (Cal) - Rescue Team",United States,California,Berkeley,,,"200 California Hall, Ste. 1500","200 California Hall, Ste. 1500"
"University of California, Davis (UCD)-Rescue Team",United States,California,Davis,,,,
"University of California, Irvine - Rescue Team",United States,California,Irvine,,,,
"University of California, Los Angeles - Rescue Team",United States,California,Los Angeles,,,,
"University of California, Riverside-Rescue Team",United States,California,Riverside,,,900 University Ave,900 University Ave
"University of California, San Diego (UCSD) - Rescue Team",United States,California,La Jolla,,,,
University of Colorado at Colorado Springs-Rescue Team,United States,Colorado,Colorado Springs,,,,
University of Findlay-Rescue Team,United States,Ohio,Findlay,,,,
University of Florida - Rescue Team,United States,Florida,Gainesville,,,,
University of Georgia-Rescue Team,United States,Georgia,Athens,,,,
University of Hawaii at Manoa-Rescue Team,United States,Hawaii,Honolulu,,,,
University of Illinois Chicago - Rescue Team,United States,Illinois,Chicago,,,,
University of Illinois Urbana Champaign - Rescue Team,United States,Illinois,Urbana,,,,
University of Iowa - Rescue Team,United States,Iowa,Iowa City,,,,
University of Kansas - Rescue Team,United States,Kansas,Lawrence,,,,
University of Maryland-College Park-Rescue Team,United States,Maryland,College Park,,,,
University of Michigan - Rescue Team,United States,Michigan,Ann Arbor,,,,
University of Minnesota-Rescue Team,United States,Minnesota,Minneapolis,,,,
University of Mount Union-Semi Rescue Team,United States,Ohio,Alliance,,,1972 Clark Ave,1972 Clark Ave
University of Nevada Las Vegas -Rescue Team,United States,Nevada,Las Vegas,,,4505 S. Maryland Pkwy.,4505 S. Maryland Pkwy.
University of New South Wales - Rescue Team,Australia,New South Wales,Sydney,,,,
University of North Carolina Chapel Hill - Rescue Team,United States,North Carolina,Chapel Hill,,,University of North Carolina at Chapel Hill,University of North Carolina at Chapel Hill
University of North Florida-Rescue Team,United States,Florida,Jacksonville,,,,
University of Notre Dame - Rescue Team,United States,Indiana,South Bend,,,University of Notre Dame,University of Notre Dame
University of Pennsylvania - Rescue Team,United States,Pennsylvania,Philadelphia,,,,
University of Pittsburgh-Rescue Team,United States,Pennsylvania,Pittsburgh,,,,
University of Redlands - Rescue Team,United States,California,Redlands,,,1200 East Colton Avenue,1200 East Colton Avenue
University of Regina-Rescue Team,United States,Saskatchewan,Regina,,,,
University of Rochester - Rescue Team,United States,New York,Rochester,,,University of Rochester,University of Rochester
University of Southern California (USC) - Rescue Team,United States,California,Los Angeles,,,,
University of Southern Maine-Semi Rescue Team,United States,Maine,Portland,,,96 Falmouth St,96 Falmouth St
University of Texas at Austin - Rescue Team,United States,Texas,Austin,,,,
University of Texas at Dallas-Rescue Team,United States,Texas,Dallas,,,,
University of Toronto - Rescue Team,Canada,Ontario,Toronto,"27 King's College Circle,",,"University of Toronto,","University of Toronto, 27 King's College Circle,"
University of Virginia - Rescue Team,United States,Virginia,Charlottesville,,,,
University of Wisconsin Madison - Rescue Team,United States of America,Wisconsin,Madison,,,,
University of Wisconsin River Falls-Rescue Team,United States,Wisconsin,River Falls,,,,
Van Nuys High School - Rescue Team,United States,California,Van Nuys,,,,
Vancouver Korean Presbyterian Church-Rescue Team,Canada,British Columbia,Vancouver,,,,
Vanderbilt University - Rescue Team,United States,Tennessee,Nashville,,,2201 West End Avenue,2201 West End Avenue
Vassar College - Rescue Team,United States,New York,Poughkeepsie,,,,
Walnut High School-Rescue Team,United States,California,Walnut,,,400 Pierre Rd,400 Pierre Rd
Walnut Hill School for the Arts-Rescue Team,United States,Massachusetts,Natick,,,,
Walton High School-Rescue Team,United States,Georgia,Marietta,,,,
Washburn Rural HIgh School - Rescue Team,United States of America,Kansas,Topeka,,,,
Washington University in St. Louis - Rescue Team,United States,Missouri,St. Louis,,,,
Washtenaw Community College-Semi Rescue Team,United States,Michigan,Ann Arbor,,,,
Watchung Hills Regional High School - Rescue Team,United States,New Jersey,Englewood,,,,
Wayzata High School-Rescue Team,United States,Minnesota,Plymouth,,,,
Wesleyan University - Rescue Team,United States,Connecticut,Middletown,,,,
West Ranch High School-Rescue Team,United States,California,Santa Clarita,,,,
Westfield High School - Rescue Team,United States,Virginia,Chantilly,,,4700 Stonecroft Blvd,4700 Stonecroft Blvd
Westminster High School - Rescue Team,United States of America,California,Westminster,,,14325 Goldenwest Street,14325 Goldenwest Street
Westridge School - Rescue Team,United States,California,Pasadena,"Pasadena, California 91105",,"324 Madeline Drive,","324 Madeline Drive, Pasadena, California 91105"
Westtown School - Rescue Team,United States,Pennsylvania,West Chester,,,,
Wheatland High School-Rescue Team,United States,California,Wheatland,,,,
Wheaton College-Rescue Team,United States,Illinois,Wheaton,,,,
Whitney M. Young Magnet High School- Rescue Team,United States,Illinois,Chicago,,,211 S Laflin St,211 S Laflin St
Wichita State University - Rescue Team,United States,Kansas,Wichita,,,1845 Fairmount St.,1845 Fairmount St.
William Aberhart High School - Rescue Team,Canada,Alberta,Calgary,,,,
William Fremd High School-Rescue Team,United States,Illinois,Palatine,,,,
William Paterson University-Rescue Team,United States,New Jersey,Wayne,,,,
William S. Hart High School-Rescue Team,United States,California,Santa Clarita,,,,
Willow Wind - Rescue Team,United States,Oregon,Ashland,,,,
Willow Wind Community Learning Center-Rescue Team,United States,Oregon,Ashland,,,,
Wilson Commencement Magnet High School-Rescue Team,United States,New York,Rochester,,,501 Genesee Street,501 Genesee Street
Woodbridge High School-Rescue Team,United States,California,Irvine,,,,
Yale University-Rescue Team,United States,Connecticut,New Haven,,,,
Yongsan International School of Seoul (YISS)-Rescue Team,South Korea,Gyeonggi,Seoul,,,,
Young Americans for Liberty (YAL) in North Carolina - Semi Rescue Team,United States of America,North Carolina,Chapel Hill,,,,
